[Satellite]
VERSION=1.1
NAME=COSMOS 2459 (731)
NICKNAME=COSMOS 2459 (731)
TLE1=1 36400U 10007A   20157.78616505 -.00000063  00000-0  10000-3 0  9998
TLE2=2 36400  65.8798  28.2815 0026481 353.1018 299.9916  2.13105403 79882
STATUS=0
